#dP2026  6  4  0  0  0.00000000     289 d+D   IGc20 FIT AIUB
## 2421 345600.00000000   300.00000000 61195 0.0000000000000
+  116   G01G02G03G04G05G06G07G08G09G10G11G12G13G14G15G16G17
+        G18G19G20G21G22G23G24G25G26G27G28G29G30G31G32R02R03
+        R04R05R06R07R08R09R11R12R14R15R16R17R18R19R20R21R22
+        R24R26E02E03E04E05E06E07E08E09E10E11E12E13E14E15E16
+        E18E19E21E23E25E26E27E28E29E30E31E32E33E34E36C06C07
+        C08C11C12C13C14C19C20C21C22C23C24C25C26C27C28C29C30
+        C31C32C33C34C35C36C37C38C39C41C42J02J03J04  0  0  0
++         5  5  5  5  5  5  5  5  5  5  5  5  5  5  5  5  5
++         5  5  5  5  5  5  5  5  5  5  5  5  5  5  5  5  5
++         5  5  5  5  5  5  5  5  5  5  5  5  5  5  5  5  5
++         5  5  5  5  5  5  5  5  5  5  5  5  5  5  5  5  5
++         5  5  5  5  5  5  5  5  5  5  5  5  5  5  5  5  5
++         5  5  5  5  5  5  5  5  5  5  5  5  5  5  5  5  5
++         5  5  5  5  5  5  5  5  5  5  5  5  5  5  0  0  0
%c M  cc GPS ccc cccc cccc cccc cccc ccccc ccccc ccccc ccccc
%c cc cc ccc ccc cccc cccc cccc cccc ccccc ccccc ccccc ccccc
%f  1.2500000  1.025000000  0.00000000000  0.000000000000000
%f  0.0000000  0.000000000  0.00000000000  0.000000000000000
%i    0    0    0    0      0      0      0      0         0
%i    0    0    0    0      0      0      0      0         0
/* Center for Orbit Determination in Europe (CODE)                              
/* MGEX orbits and clocks for year-day 2026-1550                                
/* Middle day of a 3-day long-arc multi-GNSS solution                           
/* Systems considered: GPS/GLONASS/Galileo/BeiDou/QZSS                          
/* Product reference - DOI 10.48620/97775                                       
/* PCV:IGS20_2417 OL/AL:FES2014b NONE     YN ORB:CoN CLK:CoN                    
*  2026  6  4  0 10  0.00000000
PG01 -15199.163386   1817.232671  21694.511984    257.347587
PG02 -17105.800199  -9063.727925  18811.242283    111.846532
PG03 -21470.774738   9438.065467  12148.970651    436.219228
PG04 -23810.701529    869.040360 -11888.964855     59.061607
PG05  16362.619597   2985.231912 -20894.389085   -233.728927
PG06   4360.638531  26016.302779   2324.696128   -595.812643
PG07  -8689.699416  16961.728276 -17706.357099   -191.940138
PG08 -26148.589846  -5986.337897   -102.638538    429.333795
PG09 -16188.340777   9435.209222 -18955.430950    741.836259
PG10   6844.058423 -20450.963084  15538.439158   -580.371825
PG11  11906.505583  21358.349515 -10412.216648   -318.495976
PG12  22033.645760  -6864.228524  12867.987740   -607.211085
PG13  21059.158296  -7859.340067  14098.788144    342.486035
PG14  -9318.151996  21392.729720  12489.673056    747.838080
PG15  26441.825419   2674.072745    -30.828850    417.187671
PG16 -12599.821252  -9491.590500 -21800.100224    275.006491
PG17  -2864.738658  15271.393849  21890.643938   -148.568856
PG18   7397.344210 -18953.208172 -16867.642697   -336.469119
PG19   9603.127005  17292.087912  17925.676382    701.273729
PG20  23854.864246  10169.636167  -5616.451531    181.968194
PG21   8916.800959  12345.416267 -21754.398256    411.442797
PG22  -4710.414783  19791.867224  17562.113969      9.749888
PG23  16176.367585 -20444.138098   4306.630791    654.791343
PG24  17042.356423   4509.633151  19418.708336     43.786749
PG25  19617.226966 -17446.113174   2628.102205    417.518041
PG26  -4554.674662 -17465.144960 -19605.025988   -371.678210
PG27 -21174.002813 -13065.162578 -10247.546829      0.383138
PG28  -4769.740308 -25874.050071   3555.087696   -510.480801
PG29  18188.228666  -6951.165141 -18176.160510   -308.284162
PG30    189.064441  24943.249657  -8536.327180    246.511815
PG31 -10370.645693 -23384.467382  -6819.492182   -144.766096
PG32  -4280.500526 -16093.001750  21010.525852     89.995136
PR02  25470.591063   -242.810026   -273.916515     12.183886
PR03  17109.526333  -8301.293333  17017.672207     14.330474
PR04   -412.708239 -10551.768257  23248.937312    359.110828
PR05 -17456.725640  -7559.748432  17012.890437    169.088516
PR06 -25458.081529    -93.007120   1755.049854    -19.288803
PR07 -17371.230655   8172.874165 -16781.010014    122.023653
PR08    877.293699  10614.378816 -23115.583243     -5.017407
PR09 -14279.857095   6638.955077 -20010.252226    330.019975
PR11  -6636.114089  22524.292045   9952.091177      7.406442
PR12   5682.811362  11723.258808  21960.582932     69.909052
PR14  14216.881722 -20028.740453   6951.738988     32.781603
PR15   6293.513054 -22406.391448 -10432.076122     55.589187
PR16  -5621.220380 -11524.114251 -22042.488426     50.181739
PR17   4992.234573 -11612.332249 -22146.002523    301.576027
PR18  -5998.003552 -21457.801567 -12450.259860    264.570273
PR19 -14530.786885 -20267.709695   5208.309533     50.189310
PR20 -14617.426392  -6799.703558  19795.943063    233.290709
PR21  -7320.044335   8396.821545  22943.149859   -313.592323
PR22   6633.418387  22071.159642  10949.204006    129.036634
PR24  14854.403967   5709.647388 -19932.910575   -169.351788
PR26  -2959.749011  10653.252769 -22964.541879    -27.153579
PE02  16885.307952   8123.798136  22908.291835     44.844287
PE03  24355.673740  16066.147147  -5069.513047    -20.906578
PE04 -26212.465118  -2774.450804 -13443.489836   -163.749876
PE05   8225.539897  19796.139748 -20415.420958     39.218336
PE06 -21083.918441   5155.913500 -20134.795256   -279.933344
PE07  12863.965817 -11903.023210  23861.380830    -68.134083
PE08  26228.956921   3016.572223  13407.523489   -157.900034
PE09 -12780.591546  11773.695200 -23959.282969   -310.927517
PE10 -13662.669769  13995.569791  22209.119725   -796.543395
PE11  -8978.853234  23517.712114  15544.980923   5188.588025
PE12 -15893.820234   3621.460733  24694.855077    -49.310767
PE13   9190.972795 -23193.452644 -15940.697490    -56.257405
PE14  -3495.536371 -17850.234070 -18213.816213   3414.995204
PE15  15891.107721  -2918.735575 -24802.244278   -263.383007
PE16 -19931.766712  20135.152443   8539.377949    -36.295872
PE18  21808.937106  19146.831285  12576.829308   2852.906524
PE19 -23777.354635 -16608.664805   5883.352653   3004.419715
PE21   2643.737393 -19855.003257 -21791.315609   -747.115974
PE23 -16872.757990  -8031.782202 -22954.577958    -37.265385
PE25  -3234.197460  20038.779390  21551.698599     21.906594
PE26  -2889.551054 -29384.892153   2111.961900    323.193108
PE27  20731.203846 -19733.999058  -7530.600032  -1006.803398
PE28 -27344.244753 -10060.460402  -5237.819320    -48.439825
PE29  -8260.144432 -19923.638978  20270.439046   -212.442599
PE30  26416.808905  -8512.473103  10270.107690  -1114.235993
PE31 -26315.314877   7981.434723 -10946.698744   -146.109921
PE32  27342.818114  10095.430754   5193.327213     13.839783
PE33 -13021.463730 -18839.114000  18750.845924    -17.675576
PE34  13125.374217  18672.357059 -18858.290348   -258.175419
PE36   2677.163478  29407.897295  -1961.708070   -574.905911
PC06 -24700.367632  30485.549342 -15525.797039    292.237765
PC07 -10467.414737  35302.208098 -20204.724812    -25.364085
PC08 -11236.265134  21536.472047  34503.189856   -237.627871
PC11  21609.485368  16065.308787  -7308.998611   -700.923254
PC12  21962.995558   6405.366985 -15987.809953    636.062100
PC13 -19063.587808    615.034939  20360.490070   -924.085691
PC14  -4168.584263 -15153.280080  23055.907481   -338.076319
PC19  26826.945475   -191.869055  -7753.170672   -938.712939
PC20  16087.350021  10390.006971 -20316.526309   -904.029800
PC21   6193.130178 -16005.757469  22017.783320   -851.189772
PC22  23259.853449 -11532.587049  10271.010332    454.997868
PC23 -16199.016352  18248.491339 -13538.238678   -457.507741
PC24  -6889.996557 -20446.335308 -17696.082629   -386.564769
PC25 -16883.016081    415.700262 -22229.958950    850.997058
PC26   5061.497056 -27131.701313  -4021.577406   -649.605111
PC27   1312.117040  21013.721532  18291.937560    641.154692
PC28 -12282.439764  10673.929937  22671.358974    524.436895
PC29  22639.011586   9093.383570 -13560.519974    612.628820
PC30  17936.420223  21178.284967   2822.843111    461.695052
PC31  -2162.312192 -21064.364088 -18212.252972    792.739436
PC32  -6105.941902  16057.181560 -21978.509804   -912.843152
PC33 -26758.653834    300.127206   7851.444790   -914.109714
PC34 -17518.363221 -21453.665969  -3482.696253    959.921370
PC35  13481.330112  -9530.012385 -22520.395638   -413.105384
PC36  16761.248789    600.659946  22325.891668    275.707254
PC37  -6373.432121  27013.502072   3069.002828   -937.756788
PC38 -22532.417309  -7769.474055  14508.668481    139.630044
PC39  16374.142319 -17786.358972  13915.818498   -890.629434
PC41 -23959.896177  11015.707771  -9017.545218   -942.195350
PC42 -13607.864289 -11639.726812  21420.648414   -892.412503
PJ02 -31338.380609  26090.006607  15907.714874     -0.356543
PJ03 -27262.772779  26400.543418  23431.396385     -4.765215
PJ04 -30233.977043  19575.319161 -16915.161504      0.780744
EOF
